STARLINK-37383          
1 69379U 26123AC  26162.58335648 -.01826792  99331-3 -36259-2 0  9999
2 69379  53.1555 269.5062 0000849  63.2173 336.4611 15.99380709  2392
STARLINK-37411          
1 69380U 26123AD  26162.58335648 -.01826065  98386-3 -37915-2 0  9993
2 69380  53.1561 269.5392 0000866  58.7077 325.0732 15.98582359  2390
STARLINK-37427          
1 69381U 26123AE  26162.58335648 -.01768701  93347-3 -35448-2 0  9997
2 69381  53.1560 269.5192 0000899  59.8151 333.7368 15.99201738  2301
DTC TEST OBJECT A       
1 69472U 26128A   26162.57853373  .00021491  00000+0  31196-3 0  9994
2 69472  54.9939 330.9361 0008117 263.8105  96.2006 15.55791286   356
DTC TEST OBJECT B       
1 69473U 26128B   26162.57830737  .00030846  00000+0  44142-3 0  9993
2 69473  55.0027 330.9349 0008166 268.1431  91.8670 15.55965396   349
