OBJECT_NAME,OBJECT_ID,EPOCH,MEAN_MOTION,ECCENTRICITY,INCLINATION,RA_OF_ASC_NODE,ARG_OF_PERICENTER,MEAN_ANOMALY,EPHEMERIS_TYPE,CLASSIFICATION_TYPE,NORAD_CAT_ID,ELEMENT_SET_NO,REV_AT_EPOCH,BSTAR,MEAN_MOTION_DOT,MEAN_MOTION_DDOT
STARLINK-37383,2026-123AC,2026-06-11T14:00:01.999872,15.99380709,.00008494,53.1555,269.5062,63.2173,336.4611,0,U,69379,999,239,-.36259161E-2,-.1826792E-1,.99331364E-3
STARLINK-37411,2026-123AD,2026-06-11T14:00:01.999872,15.98582359,.00008666,53.1561,269.5392,58.7077,325.0732,0,U,69380,999,239,-.37914871E-2,-.1826065E-1,.98385848E-3
STARLINK-37427,2026-123AE,2026-06-11T14:00:01.999872,15.99201738,.00008999,53.1560,269.5192,59.8151,333.7368,0,U,69381,999,230,-.3544825E-2,-.1768701E-1,.93346521E-3
DTC TEST OBJECT A,2026-128A,2026-06-11T13:53:05.314272,15.55791286,.00081176,54.9939,330.9361,263.8105,96.2006,0,U,69472,999,35,.31196374E-3,.21491E-3,0
DTC TEST OBJECT B,2026-128B,2026-06-11T13:52:45.756768,15.55965396,.00081663,55.0027,330.9349,268.1431,91.8670,0,U,69473,999,34,.44141891E-3,.30846E-3,0
